[{"OBJECT_NAME":"KUZGTU 1 (RS47S)","OBJECT_ID":"2023-091AV","EPOCH":"2026-03-09T22:22:51.965760","MEAN_MOTION":15.27481352,"ECCENTRICITY":0.0012896,"INCLINATION":97.5178,"RA_OF_ASC_NODE":132.5224,"ARG_OF_PERICENTER":89.3666,"MEAN_ANOMALY":270.9051,"EPHEMERIS_TYPE":0,"CLASSIFICATION_TYPE":"U","NORAD_CAT_ID":57217,"ELEMENT_SET_NO":999,"REV_AT_EPOCH":14921,"BSTAR":0.00057711473,"MEAN_MOTION_DOT":0.00015496,"MEAN_MOTION_DDOT":0},{"OBJECT_NAME":"STARLINK-36453","OBJECT_ID":"2026-003H","EPOCH":"2026-03-09T11:42:15.605568","MEAN_MOTION":15.27614464,"ECCENTRICITY":0.00010519,"INCLINATION":43.0003,"RA_OF_ASC_NODE":228.149,"ARG_OF_PERICENTER":209.8674,"MEAN_ANOMALY":150.2118,"EPHEMERIS_TYPE":0,"CLASSIFICATION_TYPE":"U","NORAD_CAT_ID":67341,"ELEMENT_SET_NO":999,"REV_AT_EPOCH":879,"BSTAR":0.0014648968,"MEAN_MOTION_DOT":0.00040312,"MEAN_MOTION_DDOT":0}]
